<?xml version="1.0" encoding="UTF-8"?>
<ndm xmlns:xsi="http://www.w3.org/2001/XMLSchema-instance" xsi:noNamespaceSchemaLocation="https://sanaregistry.org/r/ndmxml_unqualified/ndmxml-2.0.0-master-2.0.xsd">
<omm id="CCSDS_OMM_VERS" version="2.0">
<header><CREATION_DATE/><ORIGINATOR/></header><body><segment><metadata><OBJECT_NAME>KUIPER-00049</OBJECT_NAME><OBJECT_ID>2025-134K</OBJECT_ID><CENTER_NAME>EARTH</CENTER_NAME><REF_FRAME>TEME</REF_FRAME><TIME_SYSTEM>UTC</TIME_SYSTEM><MEAN_ELEMENT_THEORY>SGP4</MEAN_ELEMENT_THEORY></metadata><data><meanElements><EPOCH>2025-10-21T22:15:52.467840</EPOCH><MEAN_MOTION>14.79940265</MEAN_MOTION><ECCENTRICITY>.00039349</ECCENTRICITY><INCLINATION>51.8984</INCLINATION><RA_OF_ASC_NODE>122.6555</RA_OF_ASC_NODE><ARG_OF_PERICENTER>162.5631</ARG_OF_PERICENTER><MEAN_ANOMALY>197.5468</MEAN_ANOMALY></meanElements><tleParameters><EPHEMERIS_TYPE>0</EPHEMERIS_TYPE><CLASSIFICATION_TYPE>U</CLASSIFICATION_TYPE><NORAD_CAT_ID>64509</NORAD_CAT_ID><ELEMENT_SET_NO>999</ELEMENT_SET_NO><REV_AT_EPOCH>1958</REV_AT_EPOCH><BSTAR>.63649571E-3</BSTAR><MEAN_MOTION_DOT>.4635E-4</MEAN_MOTION_DOT><MEAN_MOTION_DDOT>0</MEAN_MOTION_DDOT></tleParameters></data></segment></body></omm>
<omm id="CCSDS_OMM_VERS" version="2.0">
<header><CREATION_DATE/><ORIGINATOR/></header><body><segment><metadata><OBJECT_NAME>KUIPER-00050</OBJECT_NAME><OBJECT_ID>2025-134L</OBJECT_ID><CENTER_NAME>EARTH</CENTER_NAME><REF_FRAME>TEME</REF_FRAME><TIME_SYSTEM>UTC</TIME_SYSTEM><MEAN_ELEMENT_THEORY>SGP4</MEAN_ELEMENT_THEORY></metadata><data><meanElements><EPOCH>2025-10-21T22:41:12.338880</EPOCH><MEAN_MOTION>14.95797957</MEAN_MOTION><ECCENTRICITY>.00054318</ECCENTRICITY><INCLINATION>51.8885</INCLINATION><RA_OF_ASC_NODE>122.0143</RA_OF_ASC_NODE><ARG_OF_PERICENTER>205.3964</ARG_OF_PERICENTER><MEAN_ANOMALY>154.6739</MEAN_ANOMALY></meanElements><tleParameters><EPHEMERIS_TYPE>0</EPHEMERIS_TYPE><CLASSIFICATION_TYPE>U</CLASSIFICATION_TYPE><NORAD_CAT_ID>64510</NORAD_CAT_ID><ELEMENT_SET_NO>999</ELEMENT_SET_NO><REV_AT_EPOCH>1959</REV_AT_EPOCH><BSTAR>.69301704E-3</BSTAR><MEAN_MOTION_DOT>.757E-4</MEAN_MOTION_DOT><MEAN_MOTION_DDOT>0</MEAN_MOTION_DDOT></tleParameters></data></segment></body></omm>
<omm id="CCSDS_OMM_VERS" version="2.0">
<header><CREATION_DATE/><ORIGINATOR/></header><body><segment><metadata><OBJECT_NAME>KUIPER-00051</OBJECT_NAME><OBJECT_ID>2025-134M</OBJECT_ID><CENTER_NAME>EARTH</CENTER_NAME><REF_FRAME>TEME</REF_FRAME><TIME_SYSTEM>UTC</TIME_SYSTEM><MEAN_ELEMENT_THEORY>SGP4</MEAN_ELEMENT_THEORY></metadata><data><meanElements><EPOCH>2025-10-22T00:00:02.999808</EPOCH><MEAN_MOTION>14.79953566</MEAN_MOTION><ECCENTRICITY>.00022046</ECCENTRICITY><INCLINATION>51.8994</INCLINATION><RA_OF_ASC_NODE>119.8968</RA_OF_ASC_NODE><ARG_OF_PERICENTER>183.5407</ARG_OF_PERICENTER><MEAN_ANOMALY>186.5294</MEAN_ANOMALY></meanElements><tleParameters><EPHEMERIS_TYPE>0</EPHEMERIS_TYPE><CLASSIFICATION_TYPE>U</CLASSIFICATION_TYPE><NORAD_CAT_ID>64511</NORAD_CAT_ID><ELEMENT_SET_NO>999</ELEMENT_SET_NO><REV_AT_EPOCH>584</REV_AT_EPOCH><BSTAR>.49158193E-2</BSTAR><MEAN_MOTION_DOT>.37482E-3</MEAN_MOTION_DOT><MEAN_MOTION_DDOT>0</MEAN_MOTION_DDOT></tleParameters></data></segment></body></omm>
<omm id="CCSDS_OMM_VERS" version="2.0">
<header><CREATION_DATE/><ORIGINATOR/></header><body><segment><metadata><OBJECT_NAME>KUIPER-00052</OBJECT_NAME><OBJECT_ID>2025-134N</OBJECT_ID><CENTER_NAME>EARTH</CENTER_NAME><REF_FRAME>TEME</REF_FRAME><TIME_SYSTEM>UTC</TIME_SYSTEM><MEAN_ELEMENT_THEORY>SGP4</MEAN_ELEMENT_THEORY></metadata><data><meanElements><EPOCH>2025-10-21T21:44:04.915680</EPOCH><MEAN_MOTION>15.62184343</MEAN_MOTION><ECCENTRICITY>.00063092</ECCENTRICITY><INCLINATION>51.8686</INCLINATION><RA_OF_ASC_NODE>96.7192</RA_OF_ASC_NODE><ARG_OF_PERICENTER>218.4401</ARG_OF_PERICENTER><MEAN_ANOMALY>141.6148</MEAN_ANOMALY></meanElements><tleParameters><EPHEMERIS_TYPE>0</EPHEMERIS_TYPE><CLASSIFICATION_TYPE>U</CLASSIFICATION_TYPE><NORAD_CAT_ID>64512</NORAD_CAT_ID><ELEMENT_SET_NO>999</ELEMENT_SET_NO><REV_AT_EPOCH>1993</REV_AT_EPOCH><BSTAR>.20069222E-2</BSTAR><MEAN_MOTION_DOT>.183652E-2</MEAN_MOTION_DOT><MEAN_MOTION_DDOT>0</MEAN_MOTION_DDOT></tleParameters></data></segment></body></omm>
<omm id="CCSDS_OMM_VERS" version="2.0">
<header><CREATION_DATE/><ORIGINATOR/></header><body><segment><metadata><OBJECT_NAME>KUIPER-00053</OBJECT_NAME><OBJECT_ID>2025-134P</OBJECT_ID><CENTER_NAME>EARTH</CENTER_NAME><REF_FRAME>TEME</REF_FRAME><TIME_SYSTEM>UTC</TIME_SYSTEM><MEAN_ELEMENT_THEORY>SGP4</MEAN_ELEMENT_THEORY></metadata><data><meanElements><EPOCH>2025-10-22T00:00:02.999808</EPOCH><MEAN_MOTION>14.87099345</MEAN_MOTION><ECCENTRICITY>.00020823</ECCENTRICITY><INCLINATION>51.9114</INCLINATION><RA_OF_ASC_NODE>116.2040</RA_OF_ASC_NODE><ARG_OF_PERICENTER>195.8509</ARG_OF_PERICENTER><MEAN_ANOMALY>240.3631</MEAN_ANOMALY></meanElements><tleParameters><EPHEMERIS_TYPE>0</EPHEMERIS_TYPE><CLASSIFICATION_TYPE>U</CLASSIFICATION_TYPE><NORAD_CAT_ID>64513</NORAD_CAT_ID><ELEMENT_SET_NO>999</ELEMENT_SET_NO><REV_AT_EPOCH>487</REV_AT_EPOCH><BSTAR>-.9738581E-1</BSTAR><MEAN_MOTION_DOT>-.82955E-2</MEAN_MOTION_DOT><MEAN_MOTION_DDOT>0</MEAN_MOTION_DDOT></tleParameters></data></segment></body></omm>
<omm id="CCSDS_OMM_VERS" version="2.0">
<header><CREATION_DATE/><ORIGINATOR/></header><body><segment><metadata><OBJECT_NAME>KUIPER-00054</OBJECT_NAME><OBJECT_ID>2025-134Q</OBJECT_ID><CENTER_NAME>EARTH</CENTER_NAME><REF_FRAME>TEME</REF_FRAME><TIME_SYSTEM>UTC</TIME_SYSTEM><MEAN_ELEMENT_THEORY>SGP4</MEAN_ELEMENT_THEORY></metadata><data><meanElements><EPOCH>2025-10-22T00:00:02.999808</EPOCH><MEAN_MOTION>15.02777615</MEAN_MOTION><ECCENTRICITY>.00063159</ECCENTRICITY><INCLINATION>51.8868</INCLINATION><RA_OF_ASC_NODE>112.5739</RA_OF_ASC_NODE><ARG_OF_PERICENTER>182.0008</ARG_OF_PERICENTER><MEAN_ANOMALY>262.5119</MEAN_ANOMALY></meanElements><tleParameters><EPHEMERIS_TYPE>0</EPHEMERIS_TYPE><CLASSIFICATION_TYPE>U</CLASSIFICATION_TYPE><NORAD_CAT_ID>64514</NORAD_CAT_ID><ELEMENT_SET_NO>999</ELEMENT_SET_NO><REV_AT_EPOCH>283</REV_AT_EPOCH><BSTAR>.60788397E-3</BSTAR><MEAN_MOTION_DOT>.7961E-4</MEAN_MOTION_DOT><MEAN_MOTION_DDOT>0</MEAN_MOTION_DDOT></tleParameters></data></segment></body></omm>
<omm id="CCSDS_OMM_VERS" version="2.0">
<header><CREATION_DATE/><ORIGINATOR/></header><body><segment><metadata><OBJECT_NAME>KUIPER-00055</OBJECT_NAME><OBJECT_ID>2025-134R</OBJECT_ID><CENTER_NAME>EARTH</CENTER_NAME><REF_FRAME>TEME</REF_FRAME><TIME_SYSTEM>UTC</TIME_SYSTEM><MEAN_ELEMENT_THEORY>SGP4</MEAN_ELEMENT_THEORY></metadata><data><meanElements><EPOCH>2025-10-21T21:50:53.761344</EPOCH><MEAN_MOTION>15.20895414</MEAN_MOTION><ECCENTRICITY>.00011715</ECCENTRICITY><INCLINATION>51.8886</INCLINATION><RA_OF_ASC_NODE>111.6027</RA_OF_ASC_NODE><ARG_OF_PERICENTER>353.3322</ARG_OF_PERICENTER><MEAN_ANOMALY>6.7642</MEAN_ANOMALY></meanElements><tleParameters><EPHEMERIS_TYPE>0</EPHEMERIS_TYPE><CLASSIFICATION_TYPE>U</CLASSIFICATION_TYPE><NORAD_CAT_ID>64515</NORAD_CAT_ID><ELEMENT_SET_NO>999</ELEMENT_SET_NO><REV_AT_EPOCH>1973</REV_AT_EPOCH><BSTAR>.82769502E-3</BSTAR><MEAN_MOTION_DOT>.18264E-3</MEAN_MOTION_DOT><MEAN_MOTION_DDOT>0</MEAN_MOTION_DDOT></tleParameters></data></segment></body></omm>
<omm id="CCSDS_OMM_VERS" version="2.0">
<header><CREATION_DATE/><ORIGINATOR/></header><body><segment><metadata><OBJECT_NAME>KUIPER-00056</OBJECT_NAME><OBJECT_ID>2025-134S</OBJECT_ID><CENTER_NAME>EARTH</CENTER_NAME><REF_FRAME>TEME</REF_FRAME><TIME_SYSTEM>UTC</TIME_SYSTEM><MEAN_ELEMENT_THEORY>SGP4</MEAN_ELEMENT_THEORY></metadata><data><meanElements><EPOCH>2025-10-22T00:00:02.999808</EPOCH><MEAN_MOTION>14.81576805</MEAN_MOTION><ECCENTRICITY>.00019367</ECCENTRICITY><INCLINATION>51.8993</INCLINATION><RA_OF_ASC_NODE>117.3917</RA_OF_ASC_NODE><ARG_OF_PERICENTER>158.7376</ARG_OF_PERICENTER><MEAN_ANOMALY>191.0978</MEAN_ANOMALY></meanElements><tleParameters><EPHEMERIS_TYPE>0</EPHEMERIS_TYPE><CLASSIFICATION_TYPE>U</CLASSIFICATION_TYPE><NORAD_CAT_ID>64516</NORAD_CAT_ID><ELEMENT_SET_NO>999</ELEMENT_SET_NO><REV_AT_EPOCH>548</REV_AT_EPOCH><BSTAR>.209459E-2</BSTAR><MEAN_MOTION_DOT>.16423E-3</MEAN_MOTION_DOT><MEAN_MOTION_DDOT>0</MEAN_MOTION_DDOT></tleParameters></data></segment></body></omm>
<omm id="CCSDS_OMM_VERS" version="2.0">
<header><CREATION_DATE/><ORIGINATOR/></header><body><segment><metadata><OBJECT_NAME>KUIPER-00057</OBJECT_NAME><OBJECT_ID>2025-134T</OBJECT_ID><CENTER_NAME>EARTH</CENTER_NAME><REF_FRAME>TEME</REF_FRAME><TIME_SYSTEM>UTC</TIME_SYSTEM><MEAN_ELEMENT_THEORY>SGP4</MEAN_ELEMENT_THEORY></metadata><data><meanElements><EPOCH>2025-10-21T20:34:42.457440</EPOCH><MEAN_MOTION>14.79939122</MEAN_MOTION><ECCENTRICITY>.00092656</ECCENTRICITY><INCLINATION>51.8984</INCLINATION><RA_OF_ASC_NODE>125.5229</RA_OF_ASC_NODE><ARG_OF_PERICENTER>176.7064</ARG_OF_PERICENTER><MEAN_ANOMALY>183.3961</MEAN_ANOMALY></meanElements><tleParameters><EPHEMERIS_TYPE>0</EPHEMERIS_TYPE><CLASSIFICATION_TYPE>U</CLASSIFICATION_TYPE><NORAD_CAT_ID>64517</NORAD_CAT_ID><ELEMENT_SET_NO>999</ELEMENT_SET_NO><REV_AT_EPOCH>1953</REV_AT_EPOCH><BSTAR>.42080371E-4</BSTAR><MEAN_MOTION_DOT>.97E-6</MEAN_MOTION_DOT><MEAN_MOTION_DDOT>0</MEAN_MOTION_DDOT></tleParameters></data></segment></body></omm>

</ndm>
